GLOBALSTAR M023 [+]     
1 25621U 99004A   24015.79574582 -.00000066  00000+0  21086-3 0  9999
2 25621  52.0080 191.8761 0011061  63.3930  39.6338 12.62443142150253
GLOBALSTAR M040 [-]     
1 25622U 99004B   24015.80837556 -.00000065  00000+0  21486-3 0  9998
2 25622  51.9890 195.2348 0001074  52.7652  50.3179 12.61964839149808
GLOBALSTAR M036 [-]     
1 25623U 99004C   24015.73430591 -.00000075  00000+0  11581-3 0  9995
2 25623  51.9943 166.7960 0012311 136.6707 326.0446 11.86558889117434
GLOBALSTAR M041 [-]     
1 25650U 99012B   24015.59361451 -.00000041  00000+0  56864-3 0  9992
2 25650  52.0015 126.2851 0002110  40.8179 319.2815 11.96652482116192
GLOBALSTAR M037 [+]     
1 25652U 99012D   24015.29057087 -.00000059  00000+0  24837-3 0  9992
2 25652  52.0027 324.2337 0002117 104.5822  59.7557 12.62393085145732
